STARLINK-3286           
1 50171U 21125R   26068.71744918  .00000360  00000+0  40724-4 0  9997
2 50171  53.2169 248.9972 0001316  92.8004 267.3138 15.08833644236606
KUIPER-00148            
1 65769U 25217H   26068.27522507  .00015783  00000+0  98730-3 0  9995
2 65769  51.8794  26.5769 0008108 351.8096   8.2745 15.09536529 25078
